StoreName,StoreType,StoreOpeningDate,Address,City,State,Country,Region,Manager Name
The Modern Shoppe,MBO,2022-06-22,9804 Jeremy Spurs East Christy  NJ 71291,East Lynnside,Oregon,Pakistan,South,Martha
The Eclectic Vault,Outlet Stores,2012-08-15,6060 Stephanie Islands Suite 795 Dianashire  CO 55712,West Patrickburgh,Hawaii,Bolivia,South,Rachel
The Classy Marketplace,Outlet Stores,2023-10-12,1852 Douglas Mission Apt. 869 Toddstad  KS 28830,South Jonathantown,Maryland,Bosnia and Herzegovina,East,Tammy
The Stylish Perfection,MBO,2025-05-22,USNV Morrison FPO AA 75947,North Jenniferberg,Ohio,Mali,North,Robin
The Majestic Cabinet,Exclusive,1996-09-25,27713 Emily Knoll North Rosechester  NM 19101,Port Christopher,Illinois,Morocco,West,Jeremiah
The Unique Merchant,SMB,1989-05-27,USNS Beck FPO AP 30501,Novakburgh,Maryland,Iraq,South,John
The Modern Treasures,Outlet Stores,1989-04-22,504 Fernandez Junction Cathyport  CT 55262,South Matthew,Louisiana,Georgia,West,Paul
The Timeless Closet,Exclusive,2023-10-04,856 Whitehead Manor Lake Jonathanberg  LA 35426,Lake William,Missouri,Christmas Island,South,Alfred
The Unique Finds,Exclusive,2025-04-03,16612 Brown Underpass Apt. 145 South Brendashire  FL 47266,Lake Williamton,California,Mali,East,Latoya
The Happy Nook,Exclusive,2017-05-27,653 Nelson Prairie Apt. 902 Leehaven  WY 69638,Katieport,Ohio,Northern Mariana Islands,West,Matthew
The Timeless Shop,Exclusive,1983-07-22,60911 Brown Stream Apt. 225 New Thomas  NJ 15073,Jonathanchester,Vermont,Bahamas,West,John
The Shimmer Perfection,Exclusive,1986-05-13,18187 Anderson Path Apt. 429 New Kelly  TX 08206,West Melissa,Michigan,Lebanon,West,Kelly
The Enchanted Enclave,Exclusive,2013-09-03,85694 Carr Mission Lake Jeremyland  SC 57266,New Laurenberg,Maryland,French Guiana,South,Heather
The Happy Loft,SMB,2000-05-18,33433 Wilcox Dale Suite 313 Barkerland  TN 38723,Johnhaven,Oregon,Slovakia (Slovak Republic),West,Tracey
The Whimsy Nook,Exclusive,2010-12-08,USS Rocha FPO AE 35045,Lynchfort,Maine,Cocos (Keeling) Islands,West,William
The Eclectic Finds,SMB,1987-05-20,136 Eric Fall Apt. 925 Maystad  TX 35146,Gibsonstad,Minnesota,Uganda,North,Courtney
The Luxe Closet,SMB,2008-04-23,856 Gordon Springs Christopherbury  PW 73372,Griffinfurt,Nevada,Chad,West,Kevin
The Serene Vault,MBO,2025-04-17,89002 Cain Ferry Apt. 218 East Stevenmouth  AL 80052,West Jennifer,Illinois,Algeria,East,Michael
The Golden Closet,SMB,1975-10-17,9870 Brian Pike Suite 164 East Stevenville  WI 06532,Lake Nathan,Utah,Azerbaijan,South,Daniel
The Cozy Corner,SMB,2019-05-16,2144 Brown Lake Lake Rachelburgh  VI 14754,New Travisfort,Montana,South Georgia and the South Sandwich Islands,West,Kimberly
The Trendy Avenue,MBO,2024-02-01,237 Angela Circle Apt. 328 Heatherfurt  VA 54290,Lake Deborah,Pennsylvania,Turks and Caicos Islands,North,Laura
The Elegant Closet,MBO,2015-12-17,19195 Morton Place Apt. 124 Marcmouth  NY 10758,Lake Benjamin,Michigan,Falkland Islands (Malvinas),East,Andrew
The Trendy Loft,MBO,2005-01-09,92777 Blair Causeway Suite 398 South Katherinetown  KS 56334,New Anthonyland,Texas,Tunisia,South,Sherri
The Happy Haven,MBO,2022-08-09,6138 Huffman Branch Ariasville  VI 95864,New Michael,Wyoming,Romania,East,Michael
The Luxe Marvels,SMB,2022-11-02,6870 Shaw Summit Jamieborough  GU 55840,Lake Thomas,Arizona,Saint Kitts and Nevis,West,Marcus
The Cozy Oasis,SMB,2006-08-10,8068 Mccann Ports Suite 729 Michellehaven  TN 98036,South Brian,North Dakota,British Indian Ocean Territory (Chagos Archipelago),North,Scott
The Golden Shop,SMB,2005-10-22,64901 Kayla Valleys Suite 473 Sullivanton  TN 39517,Ashleyfort,West Virginia,Pakistan,East,Lori
The Rustic Oasis,SMB,2024-08-02,9270 Armstrong Plains Suite 224 Port Shannonfort  NY 04725,Brittneyton,South Carolina,Marshall Islands,West,Erica
The Luxe Merchant,Outlet Stores,1991-08-12,71009 Torres Ridge Reneetown  TN 39041,Darrylfurt,New Hampshire,Honduras,North,Erik
The Elegant Nook,SMB,2013-01-28,605 Rose Orchard Apt. 670 Kristintown  GA 16583,South Johnchester,Iowa,Syrian Arab Republic,South,Kim
The Timeless Nook,SMB,2019-12-24,158 Porter Harbor Apt. 101 Lake Robert  MP 19806,North Heather,Connecticut,Japan,West,Chad
The Chic Essentials,MBO,2019-03-29,PSC 2050  Box 2373 APO AP 67080,Zamoramouth,Pennsylvania,Eritrea,South,Shane
The Blissful Essentials,SMB,1974-12-24,88042 Michelle Glen Brandifort  RI 26780,Morganland,West Virginia,Congo,East,Joann
The Chic Loft,MBO,1972-09-22,27852 Taylor Camp Suite 819 Griffinland  NM 63339,Glennburgh,North Carolina,Estonia,West,Christina
The Classy Shop,SMB,1987-05-02,USNS Lopez FPO AA 32922,East Michellebury,Delaware,Oman,East,Jennifer
The Vintage Boutique,MBO,1977-02-21,09134 Smith Pines New David  AL 95210,Port Kennethchester,Rhode Island,Austria,North,Cheryl
The Purely Reflections,Exclusive,2005-12-10,7526 Huber Club Apt. 930 Tammyberg  AS 71179,Lewiston,New York,Portugal,East,Michele
The Urban Shop,SMB,2021-09-12,116 Robin Centers Apt. 119 Janiceton  AR 81536,Weavershire,Michigan,Saudi Arabia,East,Ricardo
The Purely Merchant,Outlet Stores,1992-10-07,179 Paul Fork West Scottfurt  MN 92925,Bridgestown,Arkansas,Serbia,West,Brandi
The Purely Cabinet,Exclusive,2017-12-27,6944 Virginia Run Holtberg  IL 39829,East Bailey,Ohio,North Macedonia,South,Shelia
The Urban Cabinet,MBO,2015-10-30,70762 Ware Plains Suite 291 Lauraville  AZ 25418,North Jenniferside,Arkansas,French Polynesia,South,Kevin
The Unique Nook,Outlet Stores,1980-01-09,504 Theresa Orchard Wrightberg  OK 61840,Johnnyberg,Delaware,Vanuatu,North,James
The Chic Sanctuary,SMB,2023-03-28,2468 Miller Inlet Apt. 370 West Kathleenfort  PA 62429,Pamhaven,Kentucky,Falkland Islands (Malvinas),East,Justin
The Rustic Finds,SMB,2007-07-18,04916 Griffin Islands South Lindsey  FM 11799,New Michelleport,Kansas,Antarctica (the territory South of 60 deg S),East,James
The Luxe Finds,SMB,2022-04-09,USNV Walker FPO AA 66190,Youngfort,North Dakota,Ethiopia,West,Nathan
The Stylish Elegance,SMB,1978-02-04,234 Harrison Trail Suite 434 New Brianbury  WI 64396,Williamfurt,South Dakota,Central African Republic,East,Dan
The Rustic Reflections,MBO,2002-08-17,183 Hughes Circle Apt. 152 New Johnbury  AK 70939,East Joseland,Mississippi,Ireland,South,Susan
The Serene Avenue,Outlet Stores,1992-11-04,07901 Andrea Plains North Brendaport  CO 93535,East Jeffrey,Delaware,Ethiopia,South,Donald
The Chic Essentials,Exclusive,2021-04-24,7032 Wendy Springs Apt. 728 Moonhaven  MI 08635,Port Josephhaven,Nevada,Mexico,West,Jessica
The Stylish Nook,Exclusive,1980-12-22,597 Jonathan Points North Mark  AS 30849,Danielmouth,New Jersey,Poland,East,David
The Shimmer Shop,Exclusive,2024-02-23,234 Melissa Burg Apt. 827 West Charles  KS 52910,West Jeremiah,Mississippi,Swaziland,South,Mark
The Golden Nook,MBO,1988-07-20,565 Wood Square Apt. 008 North Aaron  NH 67017,Heatherville,Ohio,Martinique,East,Jessica
The Purely Marketplace,SMB,2013-06-08,6319 Gregory Avenue West Roberttown  ID 44698,West Dylan,Utah,Svalbard & Jan Mayen Islands,South,Tonya
The Happy Shop,SMB,1972-09-09,28322 Brian Port South Ronaldhaven  MO 64346,Mccoyburgh,Washington,Palestinian Territory,North,John
The Whimsy Closet,Outlet Stores,1974-09-10,7134 Crystal Estate Suite 975 Tamarashire  OK 83817,Bernardtown,West Virginia,Nigeria,East,Bryan
The Dapper Shoppe,MBO,2009-11-28,Unit 5565 Box 7986 DPO AE 48172,Martinezville,Wyoming,Malawi,North,Thomas
The Majestic Hub,Exclusive,1986-04-17,21539 Perry Greens Apt. 863 South Charles  LA 95834,Anthonyhaven,Pennsylvania,Reunion,East,Rebecca
The Artisan Boutique,SMB,2011-03-31,4536 Bailey Road Tammychester  MP 02731,Hunterfurt,Wyoming,Paraguay,North,Amanda
The Whimsy Nook,Exclusive,1986-04-13,572 Francisco Junctions Suite 813 East Frank  MO 97563,Port Lynnton,Colorado,Dominican Republic,East,Tina
The Rustic Oasis,Outlet Stores,2003-09-05,9744 Holder Brooks Suite 185 New Jeffrey  KY 98994,North Jonathanberg,Alabama,Dominican Republic,East,Ellen
The Blissful Cabinet,MBO,1991-01-19,295 Deborah Hollow West Yvonneland  AL 56130,Watershaven,West Virginia,Belgium,West,Eric
The Harmony Boutique,MBO,2003-08-30,929 Mcintyre Pines Josephmouth  KS 22146,Thomasfort,Nevada,South Africa,East,Christopher
The Classy Cabinet,MBO,1975-08-31,8579 Eric Falls Suite 092 Williamshire  MS 80206,East Julianhaven,Illinois,Bulgaria,South,Jacob
The Shimmer Reflections,Outlet Stores,2022-11-12,PSC 3128  Box 9189 APO AE 09610,Paulport,California,Marshall Islands,East,Jonathan
The Harmony Nook,Exclusive,1999-10-11,49767 Michael Expressway Apt. 972 Lake Lisa  MH 25797,Popebury,Mississippi,San Marino,South,William
The Majestic Essentials,SMB,1976-01-02,2646 Jimenez Point Suite 057 Morriston  NH 07598,Port Megan,Florida,Myanmar,West,Tiffany
The Eclectic Oasis,MBO,2004-08-17,243 Perez Brook Jennifertown  TX 81089,Lesliefurt,Kentucky,Israel,North,David
The Shimmer Perfection,Outlet Stores,2016-04-25,090 Kim Tunnel Apt. 278 Kimberlyhaven  VT 65385,Paulside,Tennessee,Palau,West,Richard
The Happy Quest,Outlet Stores,1973-11-03,01627 Swanson Canyon Suite 727 Marcusport  ND 14907,Michelleside,Pennsylvania,Lesotho,North,Teresa
The Rustic Loft,SMB,2003-07-31,4802 Smith Loop Apt. 565 Port Amandamouth  WV 55768,Amandatown,Virginia,Czech Republic,East,Wanda
The Vintage Essentials,Outlet Stores,1971-07-30,09753 Chad Coves Suite 045 New Leonardland  DE 40498,Lake Patrickmouth,New York,Antarctica (the territory South of 60 deg S),South,Savannah
The Classy Cabinet,SMB,1988-12-08,5108 Breanna Drive Paulborough  MO 24018,New Maria,Montana,Bhutan,West,Michael
The Polished Perfection,MBO,2012-09-07,Unit 1516 Box 4442 DPO AP 81620,Jessicamouth,Florida,Hungary,North,Anthony
The Luxe Closet,Exclusive,1991-06-03,851 Barrett Parkways South Amandaville  AS 78030,Rochahaven,Illinois,Benin,West,Heidi
The Eclectic Elegance,SMB,2021-08-22,3465 Hill Port Suite 613 Danielburgh  RI 00669,Port Brandonburgh,Arkansas,Haiti,East,Kristi
The Chic Perfection,MBO,2010-07-04,887 Watson Road Hallville  MP 82175,Summersfort,Utah,Mozambique,South,John
The Rustic Merchant,SMB,2018-06-30,68578 Jesse Viaduct Hodgesside  OH 15768,Sandersbury,South Carolina,Colombia,North,Russell
The Polished Vault,Outlet Stores,1995-09-13,696 Joseph Gateway Lake Karen  CT 11403,North Makayla,Missouri,Iraq,North,Paul
The Rustic Hub,Exclusive,2013-10-04,0985 Courtney Hollow Apt. 144 Melissaborough  AL 74912,Ericatown,Arkansas,Nauru,South,Angela
The Stylish Marvels,MBO,1971-01-31,026 Jeffrey Street Port Taylorside  MH 46739,Andersonfurt,New Mexico,Guadeloupe,South,Patricia
The Golden Cabinet,Exclusive,1996-09-17,622 Murphy Street Apt. 559 Nicolechester  CA 26562,Gravesborough,Arkansas,Mauritania,South,Miranda
The Whimsy Marvels,MBO,1984-06-27,5178 Drew Mountains Suite 722 New Dannychester  PA 43319,Smithport,New Mexico,Luxembourg,West,Anthony
The Dapper Merchant,SMB,2013-08-29,592 Smith Stream Suite 101 East Michael  MP 75046,Jasontown,Missouri,Peru,South,Troy
The Classy Enclave,Outlet Stores,2006-12-02,601 Benjamin Turnpike Lake Heatherberg  PA 05079,West Matthew,North Dakota,Liberia,South,Drew
The Artisan Quest,Exclusive,1972-08-22,50751 Brown Plain Apt. 350 Kaitlynville  RI 83449,North Robertfurt,Kentucky,Ukraine,South,Melanie
The Modern Nook,SMB,1996-05-18,02127 Wilson Cape Justinstad  MH 82418,Sanchezshire,Michigan,Zimbabwe,South,Andrea
The Elegant Closet,Exclusive,1976-08-12,245 Tamara Squares South Lindsayborough  AS 05343,North Davidberg,Arkansas,Hong Kong,East,Christopher
The Artisan Cabinet,MBO,1970-09-25,59141 David Highway Apt. 308 Reneeton  NY 13771,East Heather,Louisiana,Guam,West,Barbara
The Vintage Hub,Exclusive,1992-11-07,7575 Hall Meadows North Andrew  RI 86112,Amandastad,Illinois,Guatemala,East,Terri
The Elegant Cabinet,Exclusive,2024-10-12,85646 Brittany Ports Apt. 391 North Zachary  GU 71880,North Wayne,California,Cape Verde,East,Michael
The Trendy Boutique,SMB,2001-03-08,6289 Molly Stravenue Suite 323 West Jeffreyview  LA 41358,Adrianmouth,Rhode Island,Guinea,South,Norman
The Urban Hub,MBO,1980-05-03,75950 Glass Lights Robertstad  UT 16452,Suzannemouth,West Virginia,Monaco,North,Justin
The Happy Perfection,Exclusive,2010-01-06,31207 John Lane Suite 813 North Alex  GU 26309,Rodriguezburgh,North Dakota,Wallis and Futuna,North,Garrett
The Trendy Perfection,SMB,1990-06-16,USNS Ferguson FPO AE 58200,North Lindsaymouth,Maine,Bhutan,South,Lauren
The Stylish Vault,SMB,2016-10-04,19804 Johnson Inlet Terryfort  GA 72258,West Carl,Tennessee,Equatorial Guinea,East,Lisa
The Unique Finds,MBO,2018-05-17,480 Jimenez Branch Apt. 842 South Tylerfort  WA 56928,North Kathleenport,Idaho,Congo,West,Susan
The Modern Deals,MBO,1991-09-26,3243 Nina Camp Suite 264 Bakerside  NE 67708,South Ashleybury,New Mexico,Kiribati,South,Brandon
The Cozy Marvels,Outlet Stores,1994-04-30,402 Johnson Creek South Mary  RI 58031,East Tommyburgh,Alabama,Papua New Guinea,South,Karen
The Majestic Quest,Outlet Stores,2011-02-06,4965 Ward Green Apt. 024 West Jonathon  ID 16577,South James,Illinois,Nepal,North,Joshua
The Urban Hub,MBO,1992-03-17,084 Mclean Ferry South Matthewland  NH 61362,New Karen,Alabama,India,North,Ryan
